NORAD_CAT_ID,OBJECT_NAME,OBJECT_TYPE,EPOCH,MEAN_MOTION,ECCENTRICITY,INCLINATION,RA_OF_ASC_NODE,ARG_OF_PERICENTER,MEAN_ANOMALY,BSTAR,MEAN_MOTION_DOT,MEAN_MOTION_DDOT,TLE_LINE0,TLE_LINE1,TLE_LINE2,SEMIMAJOR_AXIS,PERIOD,APOGEE,PERIGEE,DECAYED
53432.0,STARLINK-4557,PAYLOAD,2024-05-20 12:07:12,15.08864974,0.0001616,53.2147,178.5891,77.2965,282.8208,0.0012032,0.00018926,0.0,0 STARLINK-4557,1 53432U 22097AW  24141.50500743  .00018926  00000-0  12032-2 0  9999,2 53432  53.2147 178.5891 0001616  77.2965 282.8208 15.08864974 98942,6917.804,95.436,540.787,538.551,0.0
53432.0,STARLINK-4557,PAYLOAD,2024-05-21 02:25:40,15.08854074,0.0001674,53.2148,175.913,76.323,283.7948,0.00056186,8.669e-05,0.0,0 STARLINK-4557,1 53432U 22097AW  24142.10116823  .00008669  00000-0  56186-3 0  9990,2 53432  53.2148 175.9130 0001674  76.3230 283.7948 15.08854074 99031,6917.837,95.437,540.86,538.544,0.0
53432.0,STARLINK-4557,PAYLOAD,2024-05-21 08:47:13,15.08846923,0.0001584,53.2151,174.7243,70.1102,290.006,0.00031312,4.7e-05,0.0,0 STARLINK-4557,1 53432U 22097AW  24142.36612862  .00004700  00000-0  31312-3 0  9998,2 53432  53.2151 174.7243 0001584  70.1102 290.0060 15.08846923 99071,6917.859,95.437,540.82,538.628,0.0
53432.0,STARLINK-4557,PAYLOAD,2024-05-22 05:27:14,15.08837583,0.0001613,53.2145,170.8558,89.4912,270.6265,0.00013702,1.893e-05,0.0,0 STARLINK-4557,1 53432U 22097AW  24143.22725185  .00001893  00000-0  13702-3 0  9990,2 53432  53.2145 170.8558 0001613  89.4912 270.6265 15.08837583 99203,6917.888,95.438,540.869,538.637,0.0
53432.0,STARLINK-4557,PAYLOAD,2024-05-22 08:38:00,15.08840409,0.0001605,53.2146,170.2596,94.8395,265.278,-2.8818e-06,-3.34e-06,0.0,0 STARLINK-4557,1 53432U 22097AW  24143.35973023 -.00000334  00000-0 -28818-5 0  9997,2 53432  53.2146 170.2596 0001605  94.8395 265.2780 15.08840409 99704,6917.879,95.438,540.854,538.634,0.0
53432.0,STARLINK-4557,PAYLOAD,2024-05-23 05:18:02,15.08831983,0.000169,53.2155,166.3973,101.3034,258.8148,4.0976e-05,3.64e-06,0.0,0 STARLINK-4557,1 53432U 22097AW  24144.22085728  .00000364  00000-0  40976-4 0  9999,2 53432  53.2155 166.3973 0001690 101.3034 258.8148 15.08831983 99351,6917.905,95.438,540.939,538.601,0.0
53432.0,STARLINK-4557,PAYLOAD,2024-05-23 08:28:47,15.08840341,0.0002165,53.2156,165.8003,120.7199,239.4007,-1.6342e-05,-5.48e-06,0.0,0 STARLINK-4557,1 53432U 22097AW  24144.35333233 -.00000548  00000-0 -16342-4 0  9996,2 53432  53.2156 165.8003 0002165 120.7199 239.4007 15.08840341 99374,6917.879,95.438,541.242,538.247,0.0
53432.0,STARLINK-4557,PAYLOAD,2024-05-24 11:30:20,15.08845402,0.0001594,53.2149,160.7488,97.9503,262.167,0.0001404,1.947e-05,0.0,0 STARLINK-4557,1 53432U 22097AW  24145.47940831  .00001947  00000-0  14040-3 0  9992,2 53432  53.2149 160.7488 0001594  97.9503 262.1670 15.08845402 99547,6917.864,95.437,540.832,538.626,0.0
53432.0,STARLINK-4557,PAYLOAD,2024-05-25 04:59:35,15.08856711,0.0001244,53.2163,157.4752,99.819,260.2942,-0.00027967,-4.738e-05,0.0,0 STARLINK-4557,1 53432U 22097AW  24146.20805224 -.00004738  00000-0 -27967-3 0  9995,2 53432  53.2163 157.4752 0001244  99.8190 260.2942 15.08856711 99653,6917.829,95.436,540.555,538.834,0.0
53432.0,STARLINK-4557,PAYLOAD,2024-05-25 08:10:22,15.08830513,0.0001504,53.2162,156.8798,96.0033,264.1131,0.00012239,1.66e-05,0.0,0 STARLINK-4557,1 53432U 22097AW  24146.34053788  .00001660  00000-0  12239-3 0  9995,2 53432  53.2162 156.8798 0001504  96.0033 264.1131 15.08830513 99676,6917.909,95.438,540.815,538.734,0.0
53432.0,STARLINK-4557,PAYLOAD,2024-05-26 08:01:09,15.08838068,0.000161,53.2163,152.4195,86.5782,273.5394,2.2087e-05,6.3e-07,0.0,0 STARLINK-4557,1 53432U 22097AW  24147.33413604  .00000063  00000-0  22087-4 0  9991,2 53432  53.2163 152.4195 0001610  86.5782 273.5394 15.08838068100304,6917.886,95.438,540.865,538.638,0.0
53432.0,STARLINK-4557,PAYLOAD,2024-05-26 17:33:28,15.08838948,0.0001533,53.2159,150.6361,88.8261,271.2906,-2.847e-06,-3.33e-06,0.0,0 STARLINK-4557,1 53432U 22097AW  24147.73157629 -.00000333  00000-0 -28470-5 0  9992,2 53432  53.2159 150.6361 0001533  88.8261 271.2906 15.08838948 99886,6917.884,95.438,540.809,538.688,0.0
53432.0,STARLINK-4557,PAYLOAD,2024-05-27 06:16:33,15.08836036,0.0001558,53.2161,148.2576,89.2229,270.8941,4.6824e-05,4.57e-06,0.0,0 STARLINK-4557,1 53432U 22097AW  24148.26149854  .00000457  00000-0  46824-4 0  9999,2 53432  53.2161 148.2576 0001558  89.2229 270.8941 15.08836036100441,6917.893,95.438,540.835,538.68,0.0
53432.0,STARLINK-4557,PAYLOAD,2024-05-27 17:24:15,15.08836177,0.0001559,53.2161,146.176,88.4354,271.6816,4.4564e-05,4.21e-06,0.0,0 STARLINK-4557,1 53432U 22097AW  24148.72517916  .00000421  00000-0  44564-4 0  9998,2 53432  53.2161 146.1760 0001559  88.4354 271.6816 15.08836177100518,6917.892,95.438,540.836,538.679,0.0
53432.0,STARLINK-4557,PAYLOAD,2024-05-28 06:07:20,15.08842158,0.0001541,53.2162,143.7969,89.9681,270.1487,8.5322e-05,1.07e-05,0.0,0 STARLINK-4557,1 53432U 22097AW  24149.25509322  .00001070  00000-0  85322-4 0  9997,2 53432  53.2162 143.7969 0001541  89.9681 270.1487 15.08842158100113,6917.874,95.437,540.805,538.673,0.0
53432.0,STARLINK-4557,PAYLOAD,2024-05-29 09:08:53,15.08841477,0.0001521,53.2165,138.7411,97.8214,262.295,3.0098e-05,1.91e-06,0.0,0 STARLINK-4557,1 53432U 22097AW  24150.38117338  .00000191  00000-0  30098-4 0  9998,2 53432  53.2165 138.7411 0001521  97.8214 262.2950 15.08841477100288,6917.876,95.437,540.793,538.689,0.0
53432.0,STARLINK-4557,PAYLOAD,2024-05-30 08:59:40,15.08838714,0.0001539,53.2165,134.2802,101.4219,258.6946,-4.2834e-06,-3.56e-06,0.0,0 STARLINK-4557,1 53432U 22097AW  24151.37477626 -.00000356  00000-0 -42834-5 0  9994,2 53432  53.2165 134.2802 0001539 101.4219 258.6946 15.08838714100913,6917.884,95.438,540.814,538.685,0.0
53432.0,STARLINK-4557,PAYLOAD,2024-05-30 23:18:09,15.08836564,0.0001523,53.2168,131.6037,97.118,262.9986,1.8455e-05,6e-08,0.0,0 STARLINK-4557,1 53432U 22097AW  24151.97093799  .00000006  00000-0  18455-4 0  9996,2 53432  53.2168 131.6037 0001523  97.1180 262.9986 15.08836564101002,6917.891,95.438,540.809,538.702,0.0
53432.0,STARLINK-4557,PAYLOAD,2024-05-31 04:04:18,15.08837172,0.000151,53.2168,130.7116,93.4376,266.6788,2.207e-05,6.3e-07,0.0,0 STARLINK-4557,1 53432U 22097AW  24152.16965804  .00000063  00000-0  22070-4 0  9994,2 53432  53.2168 130.7116 0001510  93.4376 266.6788 15.08837172100558,6917.889,95.438,540.799,538.709,0.0
53432.0,STARLINK-4557,PAYLOAD,2024-05-31 05:39:41,15.08838015,0.0001551,53.2168,130.4141,98.162,261.9548,3.192e-05,2.2e-06,0.0,0 STARLINK-4557,1 53432U 22097AW  24152.23589709  .00000220  00000-0  31920-4 0  9997,2 53432  53.2168 130.4141 0001551  98.1620 261.9548 15.08838015101046,6917.886,95.438,540.824,538.678,0.0
53432.0,STARLINK-4557,PAYLOAD,2024-05-31 21:33:33,15.08831789,0.0001454,53.2158,127.4429,90.7918,269.3241,1.5441e-05,-4.2e-07,0.0,0 STARLINK-4557,1 53432U 22097AW  24152.89830392 -.00000042  00000-0  15441-4 0  9999,2 53432  53.2158 127.4429 0001454  90.7918 269.3241 15.08831789101144,6917.905,95.438,540.776,538.765,0.0
53432.0,STARLINK-4557,PAYLOAD,2024-06-01 03:55:06,15.08830204,0.0001488,53.2172,126.253,96.4379,263.6783,-7.8986e-06,-4.14e-06,0.0,0 STARLINK-4557,1 53432U 22097AW  24153.16326696 -.00000414  00000-0 -78986-5 0  9995,2 53432  53.2172 126.2530 0001488  96.4379 263.6783 15.08830204100701,6917.91,95.438,540.805,538.746,0.0
53432.0,STARLINK-4557,PAYLOAD,2024-06-02 05:21:15,15.08891572,0.0001671,53.2176,121.4952,74.6712,285.4465,-0.00060335,-9.891e-05,0.0,0 STARLINK-4557,1 53432U 22097AW  24154.22309123 -.00009891  00000-0 -60335-3 0  9994,2 53432  53.2176 121.4952 0001671  74.6712 285.4465 15.08891572100864,6917.723,95.434,540.744,538.432,0.0
53432.0,STARLINK-4557,PAYLOAD,2024-06-02 14:53:34,15.0884281,0.0001412,53.2173,119.71,82.9022,277.2131,4.2726e-05,3.92e-06,0.0,0 STARLINK-4557,1 53432U 22097AW  24154.62054151  .00000392  00000-0  42726-4 0  9996,2 53432  53.2173 119.7100 0001412  82.9022 277.2131 15.08842810101406,6917.872,95.437,540.714,538.76,0.0
53432.0,STARLINK-4557,PAYLOAD,2024-06-02 21:15:07,15.08836045,0.0001441,53.2174,118.5209,84.115,276.0007,0.0001026,1.345e-05,0.0,0 STARLINK-4557,1 53432U 22097AW  24154.88550460  .00001345  00000-0  10260-3 0  9994,2 53432  53.2174 118.5209 0001441  84.1150 276.0007 15.08836045100964,6917.892,95.438,540.754,538.761,0.0
53432.0,STARLINK-4557,PAYLOAD,2024-06-03 05:12:03,15.0884124,0.0001405,53.2173,117.0336,84.3989,275.7164,9.6754e-05,1.252e-05,0.0,0 STARLINK-4557,1 53432U 22097AW  24155.21670277  .00001252  00000-0  96754-4 0  9991,2 53432  53.2173 117.0336 0001405  84.3989 275.7164 15.08841240101492,6917.877,95.437,540.714,538.77,0.0
53432.0,STARLINK-4557,PAYLOAD,2024-06-03 21:05:54,15.0884256,0.0001616,53.2179,114.0624,85.1964,274.9213,3.7597e-05,3.1e-06,0.0,0 STARLINK-4557,1 53432U 22097AW  24155.87910430  .00000310  00000-0  37597-4 0  9995,2 53432  53.2179 114.0624 0001616  85.1964 274.9213 15.08842560101594,6917.873,95.437,540.855,538.62,0.0
53432.0,STARLINK-4557,PAYLOAD,2024-06-04 01:52:02,15.088842,0.0001784,53.218,113.1702,77.0623,283.0568,-0.00053202,-8.756e-05,0.0,0 STARLINK-4557,1 53432U 22097AW  24156.07781027 -.00008756  00000-0 -53202-3 0  9990,2 53432  53.2180 113.1702 0001784  77.0623 283.0568 15.08884200101143,6917.745,95.435,540.844,538.376,0.0
53432.0,STARLINK-4557,PAYLOAD,2024-06-04 06:38:12,15.08851559,0.0001355,53.2168,112.276,96.9799,263.1347,6.5596e-05,7.56e-06,0.0,0 STARLINK-4557,1 53432U 22097AW  24156.27653534  .00000756  00000-0  65596-4 0  9993,2 53432  53.2168 112.2760 0001355  96.9799 263.1347 15.08851559101179,6917.845,95.437,540.647,538.773,0.0
53432.0,STARLINK-4557,PAYLOAD,2024-06-04 14:35:08,15.08845502,0.0001258,53.2156,110.7892,100.7558,259.3576,7.4453e-06,-1.69e-06,0.0,0 STARLINK-4557,1 53432U 22097AW  24156.60773969 -.00000169  00000-0  74453-5 0  9997,2 53432  53.2156 110.7892 0001258 100.7558 259.3576 15.08845502101222,6917.864,95.437,540.599,538.858,0.0
